#aV2008  8 20  0  0   .00000000      96 DD+AD WGS84 FIT  NGA
## 1493 259200.00000000   900.00000000 54698  .0000000000000
+   31     2  3  4  5  6  7  8  9 10 11 12 13 14 15 16 17 18
+         19 20 21 22 23 24 25 26 27 28 29 30 31 32  0  0  0
+          0  0  0  0  0  0  0  0  0  0  0  0  0  0  0  0  0
+          0  0  0  0  0  0  0  0  0  0  0  0  0  0  0  0  0
+          0  0  0  0  0  0  0  0  0  0  0  0  0  0  0  0  0
++         0  0  0  0  0  0  0  0  0  0  0  0  0  0  0  0  0
++         0  0  0  0  0  0  0  0  0  0  0  0  0  0  0  0  0
++         0  0  0  0  0  0  0  0  0  0  0  0  0  0  0  0  0
++         0  0  0  0  0  0  0  0  0  0  0  0  0  0  0  0  0
++         0  0  0  0  0  0  0  0  0  0  0  0  0  0  0  0  0
%c cc cc ccc ccc cccc cccc cccc cccc ccccc ccccc ccccc ccccc
%c cc cc ccc ccc cccc cccc cccc cccc ccccc ccccc ccccc ccccc
%f  0.0000000  0.000000000  0.00000000000  0.000000000000000
%f  0.0000000  0.000000000  0.00000000000  0.000000000000000
%i    0    0    0    0      0      0      0      0         0
%i    0    0    0    0      0      0      0      0         0
/*      NGA, ST. LOUIS,MO.                                  
/*   EPHEMERIS COMPUTED FROM  3 DAYS OF DATA                
/* CCCCCCCCCCCCCCCCCCCCCCCCCCCCCCCCCCCCCCCCCCCCCCCCCCCCCCCCC
/* CCCCCCCCCCCCCCCCCCCCCCCCCCCCCCCCCCCCCCCCCCCCCCCCCCCCCCCCC
*  2008  8 20  0 15   .00000000                                                 
P  2 -13602.926113 -19518.013415 -12323.442506    193.651521                    
V  2   -965.952344 -15500.126873  25546.414536      -.027649                    
P  3  22791.623681  11265.633554  -8560.340130    272.006381                    
V  3 -10893.584016   1051.623942 -28171.705728       .051158                    
P  4  -6526.140161 -25488.631521  -1682.900840   -147.297416                    
V  4   3236.469267  -2758.452662  31469.041734      -.105380                    
P  5 -20890.104202  13803.600665   8366.907365    474.517785                    
V  5   5077.452378 -10381.379933  28950.002521     -2.597530                    
P  6  19260.451273  14091.915924 -11458.846803    167.413125                    
V  6 -15202.601974   -918.822415 -26252.527502       .007053                    
P  7   8995.092203 -17397.452047 -17929.579487     10.161074                    
V  7   6371.978773  21880.441928 -18152.549384       .037428                    
P  8   1571.715816 -24958.562789  -8257.264698   -166.499198                    
V  8   3910.434761   9992.210318 -30223.543221      -.014351                    
P  9 -14877.070813    618.177245  21363.684305     10.832389                    
V  9  -6786.268467 -27811.528569  -3680.720787       .017567                    
P 10 -14103.398872  -7522.658850 -21396.572763     -3.984308                    
V 10  20024.070793 -17803.583163  -6663.813840      -.003313                    
P 11  16243.599731  -4152.492570  20459.664807     21.378003                    
V 11  10285.309005  24594.407563  -2809.415852      -.006471                    
P 12 -21942.453372   7961.754376  12655.215891   -353.993716                    
V 12  10363.015647 -12364.342711  26005.451947       .011911                    
P 13  14661.855121  -8673.578062 -20493.600512    268.230871                    
V 13  23792.758330   9657.663661  13015.770785       .013326                    
P 14   4661.544151  16117.695550  20724.963803   -230.112875                    
V 14 -24671.251740  -8128.779392  11821.967316       .045716                    
P 15 -25694.431799  -6476.512796   1944.296427   -162.865626                    
V 15  -1480.270583  -3485.681741 -31551.263111      -.064832                    
P 16   8973.530245  12137.854905 -21784.144703    111.333481                    
V 16 -21102.837898  18101.205276   1592.229194      -.019075                    
P 17  -4879.988330 -16591.956950  20245.933040     38.927489                    
V 17  24544.683073   7228.558119  11698.091919       .000141                    
P 18 -16580.495264  19657.382363   6001.978189   -143.144208                    
V 18  -7915.190042   2198.461555 -30419.092883       .041803                    
P 19  25358.336557   7559.532020   3424.670845     34.846468                    
V 19   2919.862539   4080.954699 -31160.243528       .003339                    
P 20  22031.236351 -10716.466135  10106.864495    106.988973                    
V 20  -7468.797527  11084.366997  27752.717509      -.010379                    
P 21  -6366.668520  21270.399109 -13899.944168     53.820880                    
V 21  -6606.242082 -17380.941918 -23841.971585      -.014134                    
P 22  -5555.933071  20169.963303  16486.730128    211.304283                    
V 22 -17286.500383  11605.212792 -20283.004902      -.000697                    
P 23  23141.784278  -1945.217329 -13192.563648    369.713699                    
V 23  15164.904062   6807.404678  25459.693844       .016131                    
P 24 -13677.295057   8698.584961 -20921.629488    118.437204                    
V 24  -4963.647136 -26471.978393  -7431.237376       .029559                    
P 25  11601.276778 -11087.393377 -20842.112912   -234.472089                    
V 25   8907.025608  25748.715172  -8421.715373      -.274938                    
P 26 -24326.272642 -11115.069760  -2880.253081    312.557136                    
V 26   3238.572539   -151.138218 -31845.956139       .061189                    
P 27   5667.555010 -19968.861901 -15825.138661    211.372289                    
V 27   7683.178804  20054.117976 -21763.051635       .028171                    
P 28   6573.005261 -20266.547491  16031.966712    -21.947222                    
V 28  16284.534572 -11383.913286 -21924.650543      -.002744                    
P 29 -17674.017347   7419.391841 -18256.519874    -39.529164                    
V 29 -21632.767352  -9140.394266  17152.175953       .008277                    
P 30 -18740.124209  18747.592071   -337.111636     92.088291                    
V 30  -2293.508208  -2319.349706  31562.152408       .020957                    
P 31   8407.424275  24741.203594  -4221.995689    -25.079456                    
V 31  -1370.262043   6059.174173  31397.091047       .000210                    
P 32  21277.983512  -2336.534201  16039.889171    313.941042                    
V 32 -14544.230651  13306.240501  22001.504807       .014835                    
EOF
